{"type":"FeatureCollection","name":"Saensuk community boundaries","crs":{"type":"name","properties":{"name":"urn:ogc:def:crs:OGC:1.3:CRS84"}},"features":[{"type":"Feature","properties":{"name":"บ้านแหลมแท่น"},"geometry":{"type":"Polygon","coordinates":[[[100.9024501,13.2979492],[100.90359,13.2967054],[100.9039038,13.296368801469397],[100.9039038,13.2963686],[100.9055896,13.294561],[100.9066504,13.293385],[100.90665068023986,13.293385],[100.909334,13.2904105],[100.9094507,13.2902774],[100.9094507,13.290277859359144],[100.9097122,13.2899811],[100.9096572,13.2899811],[100.9099844,13.2896444],[100.9106147,13.2888809],[100.911302814883,13.2880912],[100.9113027,13.2880912],[100.9116299,13.2877153],[100.912334,13.2868878],[100.9148902,13.283572908713314],[100.9148902,13.2835726],[100.9149666,13.2834734],[100.9153448,13.2837553],[100.915833,13.2840164],[100.9174611,13.2846912],[100.9179895,13.2848491],[100.916183,13.2870953],[100.91541412945075,13.288039],[100.9154145,13.288039],[100.9151798,13.2883262],[100.9148902,13.2886629],[100.9148902,13.288662520452183],[100.9127323,13.2911715],[100.9108615,13.2934373],[100.91086119453061,13.2934373],[100.909397,13.2952097],[100.909397,13.295209455880828],[100.90887,13.2958479],[100.906409,13.2987832],[100.90640813724832,13.2987832],[100.9051028,13.3003402],[100.9039038,13.3017902],[100.9039038,13.301789810341777],[100.9032816,13.3025419],[100.9039575,13.3037427],[100.9039575,13.303742866666681],[100.9041747,13.304129],[100.90417460213467,13.304129],[100.9047943,13.3052292],[100.9039575,13.305165394587311],[100.9039575,13.3051665],[100.9026191,13.3050647],[100.9023736,13.3042712],[100.90228340833333,13.304129],[100.9022824,13.304129],[100.9022422,13.304065],[100.9022275,13.3040611],[100.9021953,13.3040885],[100.9020317,13.3041538],[100.9019431,13.3041355],[100.90193523798978,13.304129],[100.9019351,13.304129],[100.9016991,13.3039345],[100.9016789,13.3038327],[100.9011908,13.3035364],[100.901168,13.3034542],[100.901003,13.3032806],[100.900877,13.3032258],[100.9008153,13.3032585],[100.9007402,13.3032728],[100.9006986,13.303218],[100.9004921,13.3032324],[100.9002681,13.3032793],[100.8999503,13.3034281],[100.8999261,13.3035051],[100.8998939,13.3035378],[100.8997759,13.3034699],[100.8992663,13.3033942],[100.8991349,13.3033903],[100.8990625,13.3034399],[100.8989806,13.303436],[100.8986588,13.3036017],[100.8986212,13.3036043],[100.8985984,13.3035952],[100.8984643,13.303499179541824],[100.8984643,13.3034999],[100.8981304,13.3032611],[100.8981076,13.3032376],[100.8980995,13.3032258],[100.8981022,13.3032023],[100.8981532,13.3031266],[100.8981559,13.3030888],[100.897944,13.3029309],[100.8979198,13.3029035],[100.8979252,13.3028761],[100.8979815,13.3027964],[100.8979896,13.3027625],[100.8979829,13.3027482],[100.8979453,13.3027142],[100.8975255,13.3024819],[100.8974652,13.3023984],[100.8974531,13.3018555],[100.8974625,13.3018137],[100.8975041,13.3017876],[100.8975819,13.3017954],[100.897897,13.3016519],[100.897956,13.3015853],[100.8979721,13.3013843],[100.8983892,13.3010567],[100.8984107,13.301024578828226],[100.8984107,13.3010241],[100.8989404,13.3002345],[100.8990008,13.3001666],[100.8999717,13.2997933],[100.9004666,13.2994658],[100.90134112318998,13.2987832],[100.901341,13.2987832],[100.9015703,13.2986044],[100.9024501,13.2979492]]]}},{"type":"Feature","properties":{"name":"เขาสามมุข"},"geometry":{"type":"Polygon","coordinates":[[[100.9026539,13.3055555],[100.9026392,13.3051235],[100.9026191,13.3050647],[100.9039038,13.305162415526],[100.9039038,13.3051613],[100.9047943,13.3052292],[100.905139,13.3059052],[100.9053428,13.306285],[100.9055534,13.3064729],[100.9058042,13.3066139],[100.9061301,13.3066661],[100.9065056,13.3067039],[100.907789,13.3067627],[100.9080666,13.3068149],[100.9084086,13.3069271],[100.9087908,13.3070876],[100.9090349,13.307256],[100.909397,13.30757760541126],[100.909397,13.3075771],[100.9107958,13.3088182],[100.91147095783703,13.3094224],[100.9114717,13.3094224],[100.9148902,13.312479270136228],[100.9148902,13.3124789],[100.9151906,13.3127478],[100.9159242,13.3133807],[100.9161682,13.3135217],[100.9166765,13.3137279],[100.917386,13.3139602],[100.9179117,13.3139615],[100.9179117,13.3142212],[100.9180632,13.3145122],[100.91830047941558,13.314768],[100.9183006,13.314768],[100.9187043,13.3152026],[100.9187432,13.3154205],[100.9185219,13.3158616],[100.9168777,13.314768],[100.9168783503097,13.314768],[100.9156466,13.3139484],[100.9149854,13.3136222],[100.9148902,13.3135843],[100.9148902,13.313584229669484],[100.9146836,13.3135034],[100.9140694,13.3133129],[100.9133694,13.3132019],[100.9130046,13.3131902],[100.9128007,13.3132072],[100.9127203,13.313262],[100.9126425,13.3132868],[100.9125754,13.3132881],[100.9124815,13.3132685],[100.9123448,13.3132059],[100.9121181,13.313138],[100.9117681,13.3130793],[100.9107462,13.3129657],[100.9101386,13.3129905],[100.9095848,13.3129905],[100.9094118,13.3130479],[100.9088753,13.3131615],[100.9087493,13.3132137],[100.9086594,13.3132842],[100.9085079,13.3133168],[100.9084234,13.313352],[100.9083577,13.3134108],[100.9082034,13.3135152],[100.9080881,13.3135726],[100.9080371,13.3135869],[100.9079204,13.3135935],[100.9076348,13.3135778],[100.9068154,13.3136431],[100.9064654,13.3136939],[100.9062025,13.3136953],[100.9061649,13.3137031],[100.9060657,13.3137409],[100.906,13.3137853],[100.9052677,13.3145918],[100.9050894,13.3148202],[100.90508938851676,13.3148202],[100.9050813,13.3148307],[100.9047125,13.3154453],[100.9046857,13.3155406],[100.9046669,13.3157572],[100.9046468,13.3158616],[100.9047125,13.3159882],[100.9047058,13.316043],[100.9043437,13.3164254],[100.9039575,13.3167359227097],[100.9039575,13.316736],[100.9035471,13.3170662],[100.903476,13.3170636],[100.9034237,13.3170466],[100.903362,13.3170414],[100.9032333,13.3171275],[100.9031743,13.317185],[100.9029087,13.3175399],[100.9028135,13.3175765],[100.9027559,13.3175686],[100.9026942,13.3175465],[100.9025668,13.317382],[100.9023777,13.3170127],[100.9022234,13.3167478],[100.9021416,13.3165781],[100.9020866,13.3160926],[100.9020934,13.3155406],[100.9021148,13.3153853],[100.9021537,13.3152169],[100.9022342,13.3150434],[100.90232440392157,13.3148202],[100.902324,13.3148202],[100.9025292,13.3143125],[100.9027264,13.3135922],[100.9028417,13.3131367],[100.9029007,13.3128639],[100.9029503,13.3126943],[100.902949,13.3125324],[100.9029315,13.3123589],[100.902898,13.312167],[100.9027022,13.3115523],[100.9026593,13.3112809],[100.9025909,13.311059],[100.9024581,13.3107249],[100.9023884,13.3106114],[100.9022664,13.3103347],[100.9022127,13.3100776],[100.9021148,13.3095034],[100.90211621728395,13.3094747],[100.9021161,13.3094747],[100.90211664936531,13.309465950352484],[100.9021188,13.3094224],[100.90211938376723,13.3094224],[100.9021202,13.3094094],[100.9022154,13.3092554],[100.9022516,13.3091366],[100.9022824,13.30892],[100.9022985,13.3087242],[100.9023589,13.3084306],[100.902383,13.3081748],[100.9023763,13.3081121],[100.9024072,13.3073147],[100.9025963,13.3063542],[100.9026539,13.3055555]]]}},{"type":"Feature","properties":{"name":"มุขแสนเจริญ"},"geometry":{"type":"Polygon","coordinates":[[[100.90943938417333,13.297234827319656],[100.9094507,13.2972392],[100.9094507,13.297239239822485],[100.909735,13.2973501],[100.910152,13.2974493],[100.9107623,13.2975328],[100.9120752,13.2976177],[100.9123877,13.2977377],[100.9128611,13.2978435],[100.913018,13.2985287],[100.9128463,13.2987832],[100.91284598644123,13.2987832],[100.9116125,13.3006117],[100.9111069,13.3006834],[100.9109339,13.3007317],[100.9106509,13.3009314],[100.9106188,13.3012851],[100.909397,13.3032128],[100.909397,13.30321264002206],[100.9088163,13.304129],[100.90881546025803,13.304129],[100.9084462,13.3047124],[100.9094507,13.3052931],[100.9094507,13.305294135315723],[100.9104042,13.3058452],[100.9094507,13.30682738452145],[100.9094507,13.3068279],[100.9090349,13.307256],[100.9087908,13.3070876],[100.9084086,13.3069271],[100.9080666,13.3068149],[100.907789,13.3067627],[100.9065056,13.3067039],[100.9061301,13.3066661],[100.9058042,13.3066139],[100.9055534,13.3064729],[100.9053428,13.306285],[100.905139,13.3059052],[100.9047943,13.3052292],[100.9041452,13.3040768],[100.9041453375,13.3040768],[100.9039038,13.3036474],[100.9039038,13.303647296893017],[100.9032816,13.3025419],[100.9039575,13.3017249],[100.9039575,13.301725258381973],[100.9051028,13.3003402],[100.90640949183445,13.2987832],[100.906409,13.2987832],[100.9083845,13.2964287],[100.9085548,13.2964417],[100.9087573,13.2965892],[100.909059,13.2969677],[100.9092548,13.2971635],[100.909397,13.297218449157734],[100.909397,13.2972183],[100.90943938417333,13.297234827319656]]]}},{"type":"Feature","properties":{"name":"วัดแสนสุข"},"geometry":{"type":"Polygon","coordinates":[[[100.9142156,13.2923083],[100.9145737,13.2924962],[100.9148902,13.292694856984598],[100.9148902,13.2926946],[100.9150229,13.2927781],[100.9157109,13.293231],[100.9159845,13.2934373],[100.91598406623118,13.2934373],[100.9165129,13.2938366],[100.9176153,13.2945323],[100.9194486,13.2957304],[100.920437,13.2964561],[100.920437,13.296456338211389],[100.9205309,13.2965253],[100.921369,13.2972653],[100.9212202,13.2977495],[100.921196,13.2981841],[100.9212604,13.2984895],[100.9214294,13.2987832],[100.921428934,13.2987832],[100.9214509,13.298821],[100.9219041,13.2992191],[100.9224486,13.2996289],[100.9230213,13.3000935],[100.9236154,13.3006874],[100.9242377,13.3012603],[100.9243315,13.3017145],[100.9246199,13.3023266],[100.9245193,13.3023201],[100.9245797,13.3028408],[100.9245823,13.3031971],[100.9239681,13.3033394],[100.92383,13.3036148],[100.9236382,13.3041094],[100.9236328,13.304129],[100.9236326,13.304129],[100.9235282,13.3044944],[100.9232225,13.3046889],[100.92269,13.3047202],[100.9207186,13.3067914],[100.9205872,13.307889],[100.920437,13.30805334340362],[100.920437,13.3080534],[100.9203096,13.3081931],[100.9197517,13.3083888],[100.9195572,13.3086107],[100.9195331,13.3088952],[100.919871,13.3092658],[100.91987204949737,13.3094224],[100.9198724,13.3094224],[100.9198724,13.3094747],[100.9198724,13.3094851],[100.9197624,13.3097056],[100.9193788,13.3107497],[100.9200521,13.3109376],[100.9202211,13.3111008],[100.9202519,13.3114571],[100.9200574,13.3116815],[100.9196095,13.3116124],[100.9191991,13.3117246],[100.9191254,13.3118355],[100.9192796,13.3123824],[100.9192823,13.3127843],[100.9191361,13.3131145],[100.9188759,13.3133729],[100.9180579,13.3136718],[100.9179117,13.3139615],[100.917386,13.3139602],[100.9166765,13.3137279],[100.9161682,13.3135217],[100.9159242,13.3133807],[100.9151906,13.3127478],[100.9149438,13.312526879494008],[100.9149438,13.3125272],[100.91153018712639,13.3094747],[100.9115294,13.3094747],[100.9107958,13.3088182],[100.9094507,13.30762474588933],[100.9094507,13.3076253],[100.9090349,13.307256],[100.909397,13.306883188528134],[100.909397,13.3068827],[100.9104042,13.3058452],[100.909397,13.3052631],[100.909397,13.30526205610752],[100.9084462,13.3047124],[100.9088485,13.3040768],[100.90884937929277,13.3040768],[100.9094507,13.3031279],[100.9094507,13.303128074603054],[100.9106188,13.3012851],[100.9106509,13.3009314],[100.9109339,13.3007317],[100.9111069,13.3006834],[100.9116125,13.3006117],[100.9128812,13.298731],[100.91288151705304,13.298731],[100.913018,13.2985287],[100.9128611,13.2978435],[100.9123877,13.2977377],[100.9120752,13.2976177],[100.9107623,13.2975328],[100.910152,13.2974493],[100.909735,13.2973501],[100.90943938417333,13.297234827319656],[100.9092548,13.2971635],[100.909059,13.2969677],[100.9087573,13.2965892],[100.9085548,13.2964417],[100.9083845,13.2964287],[100.9094507,13.2951392],[100.9094507,13.295139468930689],[100.9109017,13.293385],[100.91090205675647,13.293385],[100.9124306,13.2915369],[100.9125486,13.2916283],[100.9142156,13.2923083]]]}},{"type":"Feature","properties":{"name":"สมใจนึก"},"geometry":{"type":"Polygon","coordinates":[[[100.9153716,13.2880912],[100.9156385,13.2877636],[100.9168065120879,13.288039],[100.9168066,13.288039],[100.9190382,13.288565],[100.9184535,13.2900307],[100.9182215,13.2905424],[100.9204251892801,13.29135245847425],[100.920559,13.2914012],[100.9204611,13.2921973],[100.920437,13.292240171979417],[100.920437,13.2922404],[100.9202975,13.2924897],[100.9195679,13.2932428],[100.9194335959383,13.293385],[100.9194338,13.293385],[100.9180726,13.2948312],[100.9176153,13.2945323],[100.9165129,13.2938366],[100.9159148,13.293385],[100.91591513848763,13.293385],[100.9157109,13.293231],[100.9150229,13.2927781],[100.9149438,13.292728327204223],[100.9149438,13.2927285],[100.9145737,13.2924962],[100.9142156,13.2923083],[100.9125486,13.2916283],[100.9124306,13.2915369],[100.9127323,13.2911715],[100.9149438,13.2886002],[100.9149438,13.288600582596684],[100.9151798,13.2883262],[100.91537184213092,13.2880912],[100.9153716,13.2880912]]]}},{"type":"Feature","properties":{"name":"หน้าเทศบาล"},"geometry":{"type":"Polygon","coordinates":[[[100.9156385,13.2877636],[100.9179895,13.2848491],[100.9203833,13.285312504469866],[100.9203833,13.2853124],[100.9227584,13.2857719],[100.9221791,13.2865028],[100.9220771,13.2867416],[100.9220517,13.2870679],[100.9213784,13.2870327],[100.921353,13.2873316],[100.921251,13.287543],[100.920979204305,13.288039],[100.9209801,13.288039],[100.9208474,13.2882805],[100.9207803,13.2885794],[100.9207696,13.2889801],[100.9208554,13.2893403],[100.9209064,13.2896118],[100.9208728,13.2898154],[100.920559,13.2914012],[100.920437,13.291356760614686],[100.920437,13.2913568],[100.9204251892801,13.29135245847425],[100.9203833,13.2913372],[100.9203833,13.29133706031144],[100.9182215,13.2905424],[100.9184535,13.2900307],[100.9190382,13.288565],[100.91702806296578,13.2880912],[100.9170279,13.2880912],[100.9156385,13.2877636]]]}},{"type":"Feature","properties":{"name":"บางแสนบน"},"geometry":{"type":"Polygon","coordinates":[[[100.9219283,13.2723735],[100.922104,13.2720002],[100.92210419150418,13.2720002],[100.9221469,13.2719088],[100.9223279,13.2715655],[100.9226176,13.2709403],[100.9232613,13.2695071],[100.9238769,13.2679303],[100.9241545,13.2671771],[100.9255694,13.2677645],[100.9258765,13.268853610950925],[100.9258765,13.2688531],[100.9260897,13.2696089],[100.9263633,13.2698517],[100.9271814,13.2698452],[100.9284219,13.270597],[100.9291998,13.2706453],[100.929291,13.2707106],[100.92908575271143,13.2720002],[100.9290858,13.2720002],[100.9290791,13.272042],[100.9290777,13.2720524],[100.92907763616019,13.2720524],[100.9288162,13.2739098],[100.9282878,13.2772709],[100.928261,13.2773988],[100.9282608079912,13.2773988],[100.9277594,13.2798018],[100.9275207,13.281278],[100.9268636,13.2815077],[100.9265873,13.2827451],[100.92658632719665,13.2827451],[100.9258765,13.2859194],[100.9258765,13.285918845303872],[100.9257853,13.2863266],[100.9227557,13.2857719],[100.920437,13.285322800923119],[100.920437,13.2853229],[100.9179895,13.2848491],[100.9174611,13.2846912],[100.915833,13.2840164],[100.9153448,13.2837553],[100.9149666,13.2834734],[100.9155567,13.2826929],[100.91555725080326,13.2826929],[100.9158424,13.2823156],[100.9164445,13.2813889],[100.9170923,13.2804713],[100.9177212,13.2795538],[100.9182858,13.2785735],[100.9190280181433,13.2773988],[100.9190275,13.2773988],[100.9201728,13.2755858],[100.9203833,13.275215552649524],[100.9203833,13.2752151],[100.9207454,13.2745781],[100.92131,13.2736161],[100.9219283,13.2723735]]]}},{"type":"Feature","properties":{"name":"หน้ามอโชคดี"},"geometry":{"type":"Polygon","coordinates":[[[100.9221791,13.2865028],[100.9227584,13.2857719],[100.9257853,13.2863266],[100.9258765,13.286343857458563],[100.9258765,13.2863436],[100.928029,13.2867599],[100.92740794521144,13.288039],[100.927408,13.288039],[100.9271626,13.2885454],[100.926767,13.2894512],[100.9265162,13.2901051],[100.9264585,13.2908465],[100.9262346,13.2922417],[100.9258765,13.2928421],[100.9258765,13.292841809486553],[100.9255211,13.2934373],[100.92552083634892,13.2934373],[100.9252207,13.293941],[100.9242244430036,13.2934373],[100.9242243,13.2934373],[100.92415588393546,13.293402637053848],[100.924121,13.293385],[100.92412107276249,13.293385],[100.9237656,13.2932049],[100.92361386342512,13.293385],[100.9236141,13.293385],[100.9207857,13.2967511],[100.9205309,13.2965253],[100.9203833,13.2964169],[100.9203833,13.296416672551592],[100.9194486,13.2957304],[100.9180726,13.2948312],[100.91938457391785,13.2934373],[100.9193842,13.2934373],[100.9195679,13.2932428],[100.9202975,13.2924897],[100.9203833,13.29233636709679],[100.9203833,13.2923357],[100.9204611,13.2921973],[100.920559,13.2914012],[100.9208728,13.2898154],[100.9209064,13.2896118],[100.9208554,13.2893403],[100.9207696,13.2889801],[100.9207803,13.2885794],[100.9208474,13.2882805],[100.92095141701863,13.2880912],[100.9209506,13.2880912],[100.921251,13.287543],[100.921353,13.2873316],[100.9213784,13.2870327],[100.9220517,13.2870679],[100.9220771,13.2867416],[100.9221791,13.2865028]]]}},{"type":"Feature","properties":{"name":"บางเป้ง"},"geometry":{"type":"Polygon","coordinates":[[[100.9271626,13.2885454],[100.92738270402843,13.2880912],[100.9273826,13.2880912],[100.928029,13.2867599],[100.9286405,13.2868382],[100.92948,13.286893],[100.9308466,13.2869165],[100.9314233,13.2869505],[100.9314233,13.286950999080158],[100.9319785,13.2869831],[100.9356344,13.2870092],[100.9368628,13.287036697917479],[100.9368628,13.2870366],[100.9376822,13.2870549],[100.9381047,13.2869975],[100.9391709,13.2864441],[100.94028116187846,13.288039],[100.9402813,13.288039],[100.9407172,13.2886655],[100.9389979,13.2886929],[100.9388356,13.2893246],[100.938668,13.2894082],[100.938562,13.2902591],[100.9382053,13.2911662],[100.9378204,13.2920459],[100.93748345957309,13.293385],[100.9374838,13.293385],[100.9374408,13.2935573],[100.9373899,13.2941616],[100.9371994,13.2948481],[100.93695,13.2952345],[100.9369012318217,13.295253459188585],[100.9364484,13.2954302],[100.9360018,13.2957617],[100.9351663,13.2961794],[100.9346071,13.2963765],[100.9339352,13.2963817],[100.9336562,13.2964104],[100.9335181,13.296768],[100.9331855,13.2971543],[100.9329079,13.2973488],[100.9325458,13.2975707],[100.9314233,13.297664138270555],[100.9314233,13.2976647],[100.9310907,13.2976921],[100.9307849,13.2980223],[100.9298797,13.2987832],[100.92987938968531,13.2987832],[100.9295337,13.2990742],[100.9284689,13.2990272],[100.9279941,13.299086],[100.9277983,13.2992243],[100.9279136,13.2995258],[100.927691,13.2997738],[100.9274107,13.2998038],[100.9272149,13.2996681],[100.9269601,13.2993953],[100.9267925,13.2993692],[100.9265135,13.2995911],[100.9261782,13.2996211],[100.9260964,13.2998677],[100.9261823,13.3001418],[100.9259865,13.3002528],[100.9258765,13.3002332],[100.9258765,13.300232836438768],[100.9253977,13.3001483],[100.9251469,13.3002593],[100.925092,13.3004237],[100.9254031,13.3009471],[100.9256338,13.3015722],[100.9255238,13.3019285],[100.9255868,13.3027508],[100.9254192,13.3027521],[100.9249672,13.3023449],[100.9246199,13.3023266],[100.9243315,13.3017145],[100.9242377,13.3012603],[100.9236154,13.3006874],[100.9230213,13.3000935],[100.9224486,13.2996289],[100.9219041,13.2992191],[100.9214509,13.298821],[100.9213986,13.298731],[100.92139936322778,13.298731],[100.9212604,13.2984895],[100.921196,13.2981841],[100.9212202,13.2977495],[100.921369,13.2972653],[100.9207857,13.2967511],[100.92357015438935,13.2934373],[100.9235698,13.2934373],[100.9237656,13.2932049],[100.92415588393546,13.293402637053848],[100.9252207,13.293941],[100.925552,13.293385],[100.92555231362907,13.293385],[100.9259301,13.292752],[100.9259301,13.292752232812061],[100.9262346,13.2922417],[100.9264585,13.2908465],[100.9265162,13.2901051],[100.926767,13.2894512],[100.9271626,13.2885454]]]}},{"type":"Feature","properties":{"name":"ร่วมใจพัฒนา"},"geometry":{"type":"Polygon","coordinates":[[[100.9305221,13.2713084],[100.9307112,13.2714768],[100.9308815,13.2718697],[100.93093092061608,13.272007129932364],[100.9312503,13.2728852],[100.9313549,13.272987],[100.9313697,13.272992366081873],[100.9313697,13.2729922],[100.93138388371575,13.272997508715655],[100.9314233,13.2730118],[100.9314233,13.273012261538462],[100.9314568,13.2730248],[100.9314233,13.273109375853343],[100.9314233,13.2731097],[100.9313777,13.2732245],[100.9313697,13.2732546],[100.9313697,13.273254592655343],[100.9312892,13.2735574],[100.9312718,13.2739385],[100.9312744,13.2743393],[100.9312905,13.2745833],[100.9314233,13.2746904],[100.9314233,13.274690785649724],[100.9314582,13.2747191],[100.9319879,13.2750271],[100.9320804,13.2752438],[100.9320402,13.2754474],[100.9318069,13.275762],[100.9317183,13.2760896],[100.9317076,13.2764499],[100.9320898,13.2764877],[100.9323487,13.2766966],[100.9325874,13.2770673],[100.93268226932126,13.2773466],[100.9326826,13.2773466],[100.9327993,13.2776912],[100.9329508,13.2784169],[100.9330179,13.2789403],[100.9325673,13.2789847],[100.9326142,13.2796021],[100.9318793,13.2797026],[100.9314018,13.2797809],[100.9311591,13.2797835],[100.9304698,13.2795773],[100.9301426,13.2802455],[100.9298113,13.2804727],[100.929708,13.2805888],[100.9296718,13.2813302],[100.9295954,13.2822008],[100.9295847,13.2824932],[100.92948901206827,13.2826929],[100.9294894,13.2826929],[100.9294479,13.282779],[100.9293392,13.2831601],[100.9291515,13.2839093],[100.9290589,13.2845215],[100.9288524,13.2855552],[100.9286204,13.2859716],[100.9280853,13.2867717],[100.9258765,13.2863449],[100.9258765,13.286343857458563],[100.9257853,13.2863266],[100.9259301,13.2856792],[100.9259301,13.285679704365897],[100.926598,13.2826929],[100.92659895577825,13.2826929],[100.9268636,13.2815077],[100.9275207,13.281278],[100.9277594,13.2798018],[100.9282717,13.2773466],[100.92827193792026,13.2773466],[100.9282878,13.2772709],[100.9288162,13.2739098],[100.9290791,13.272042],[100.929291,13.2707106],[100.9293875,13.2707798],[100.9298824,13.2710343],[100.9305221,13.2713084]]]}},{"type":"Feature","properties":{"name":"หาดวอนนภา"},"geometry":{"type":"Polygon","coordinates":[[[100.9307098,13.2393998],[100.9309955,13.2383789],[100.93140646103626,13.23840906404053],[100.9321797,13.2384651],[100.9333961,13.2386348],[100.9338427,13.2388058],[100.9343013,13.238939],[100.9345588,13.2389729],[100.9350443,13.238969],[100.9349260924596,13.2399194],[100.9349263,13.2399194],[100.934469,13.2435916],[100.93430122876498,13.2452665],[100.9343013,13.2452665],[100.9340197,13.248094],[100.9338869,13.2506226],[100.9338869,13.2506657],[100.93388646048439,13.2506657],[100.9338789,13.2514071],[100.9339191,13.2542947],[100.9339097,13.2560125],[100.93390940987972,13.2560125],[100.9338963,13.2583713],[100.9338628,13.2611308],[100.93385971378555,13.2613071],[100.9338601,13.2613071],[100.9338158,13.2640535],[100.933848,13.2646096],[100.9338789,13.2649829],[100.93409999251307,13.2666537],[100.9341002,13.2666537],[100.9342396,13.2677058],[100.9345011,13.2691507],[100.9347425,13.2707732],[100.9349985086773,13.2720002],[100.9349987,13.2720002],[100.9352186,13.2730536],[100.9349276,13.2730275],[100.9340237,13.2728447],[100.9336214,13.2727116],[100.9333773,13.2726998],[100.9331976,13.2727546],[100.9330045,13.2728382],[100.9328167,13.272846],[100.9326504,13.2727938],[100.9324627,13.2728082],[100.9322628,13.2728578],[100.9318753,13.273064],[100.9316741,13.2731071],[100.9314233,13.273012432063075],[100.9314233,13.2730131],[100.9313549,13.272987],[100.9312503,13.2728852],[100.93094738664406,13.2720524],[100.9309472,13.2720524],[100.93093092061608,13.272007129932364],[100.9309284,13.2720002],[100.93092842857143,13.2720002],[100.9308815,13.2718697],[100.9307112,13.2714768],[100.9305221,13.2713084],[100.9298824,13.2710343],[100.9293875,13.2707798],[100.9291998,13.2706453],[100.9284219,13.270597],[100.9271814,13.2698452],[100.9263633,13.2698517],[100.9260897,13.2696089],[100.9259301,13.269043113508442],[100.9259301,13.2690437],[100.9255694,13.2677645],[100.9241545,13.2671771],[100.9243235702331,13.2667059],[100.9243235,13.2667059],[100.9246628,13.2657635],[100.9247795,13.2653836],[100.9248868,13.2649933],[100.9250396,13.264513],[100.9253025,13.2638603],[100.9258765,13.262475419821545],[100.9258765,13.2624753],[100.9263606,13.2613071],[100.9263609939394,13.2613071],[100.9263888,13.2612405],[100.9267791,13.2603972],[100.9270325,13.2596989],[100.9277849,13.2579849],[100.9277929,13.2578583],[100.9276897,13.2576704],[100.9276347,13.2574001],[100.9276427,13.2572278],[100.9277272,13.2568884],[100.9277299,13.256767],[100.9276924,13.2566665],[100.9275126,13.2565464],[100.9274228,13.2564316],[100.9274013,13.2563754],[100.92743096240086,13.25599301296296],[100.927463,13.2555661],[100.9275743,13.2547881],[100.9282731,13.2522452],[100.9287894,13.2506135],[100.92878981303119,13.2506135],[100.9297805,13.2474818],[100.92998986755104,13.2453187],[100.9299897,13.2453187],[100.929991,13.245307],[100.9299776,13.2452665],[100.92997789130435,13.2452665],[100.9299441,13.2451621],[100.9299065,13.2451268],[100.929759,13.2451281],[100.9296758,13.2450746],[100.9296383,13.2449923],[100.9297617,13.2443592],[100.9298716,13.2442143],[100.9300983,13.2436517],[100.930223,13.2431086],[100.9302123,13.242982],[100.9302391,13.2427835],[100.9303826,13.2423031],[100.930451,13.2420107],[100.9304443,13.2419598],[100.9304067,13.241905],[100.9306937,13.2407823],[100.9306817,13.2407275],[100.9306079,13.2406974],[100.9304939,13.2406844],[100.9304711,13.2406491],[100.93064997280452,13.239954086765383],[100.9307662,13.239499],[100.9307098,13.2393998]]]}},{"type":"Feature","properties":{"name":"วัดกลางดอน"},"geometry":{"type":"Polygon","coordinates":[[[100.9327029140845,13.2826929],[100.9327094,13.2826315],[100.93297834929577,13.2826929],[100.932979,13.2826929],[100.9338199,13.2828847],[100.9337702,13.2837488],[100.9346487,13.2842983],[100.9348901,13.2840385],[100.9349866,13.2840307],[100.9351476,13.2841521],[100.9362017,13.2841651],[100.9362271,13.2847081],[100.9369165,13.2846755],[100.9369165,13.284675553857184],[100.9379089,13.2846285],[100.9391709,13.2864441],[100.9381047,13.2869975],[100.9376822,13.2870549],[100.9369165,13.28703779930437],[100.9369165,13.2870379],[100.9356344,13.2870092],[100.9319785,13.2869831],[100.9313697,13.2869479],[100.9313697,13.286947339951448],[100.9308466,13.2869165],[100.9314233,13.2857706],[100.9314233,13.285771161322039],[100.9317358,13.2851506],[100.9323916,13.2839628],[100.9326088,13.2833768],[100.9326692,13.2830022],[100.9327027,13.2826929],[100.9327029140845,13.2826929]]]}},{"type":"Feature","properties":{"name":"มาบมะยม"},"geometry":{"type":"Polygon","coordinates":[[[100.9314018,13.2797809],[100.9314233,13.279777],[100.9314233,13.279777374450262],[100.9318793,13.2797026],[100.9326142,13.2796021],[100.9328261,13.2796203],[100.9329267,13.2797052],[100.9329897,13.2797991],[100.9330085,13.2799349],[100.9330031,13.2805066],[100.932574,13.2815795],[100.9324868,13.2818967],[100.9324573,13.2821682],[100.9324506,13.2825728],[100.9327094,13.2826315],[100.9326974,13.2827451],[100.93269704626576,13.2827451],[100.9326692,13.2830022],[100.9326088,13.2833768],[100.9323916,13.2839628],[100.9317358,13.2851506],[100.9313697,13.2858776],[100.9313697,13.285877102930467],[100.9308466,13.2869165],[100.92948,13.286893],[100.9286405,13.2868382],[100.9280853,13.2867717],[100.9286204,13.2859716],[100.9288524,13.2855552],[100.9290589,13.2845215],[100.9291515,13.2839093],[100.9293392,13.2831601],[100.9294479,13.282779],[100.92946423972126,13.2827451],[100.929464,13.2827451],[100.9295847,13.2824932],[100.9295954,13.2822008],[100.9296718,13.2813302],[100.929708,13.2805888],[100.9298113,13.2804727],[100.9301426,13.2802455],[100.9304698,13.2795773],[100.9311591,13.2797835],[100.9313697,13.279781243881336],[100.9313697,13.2797809],[100.9314018,13.2797809]]]}},{"type":"Feature","properties":{"name":"ท้ายตลาด"},"geometry":{"type":"Polygon","coordinates":[[[100.9312892,13.2735574],[100.9313777,13.2732245],[100.9314568,13.2730248],[100.9316741,13.2731071],[100.9318753,13.273064],[100.9322628,13.2728578],[100.9324627,13.2728082],[100.9326504,13.2727938],[100.9328167,13.272846],[100.9330045,13.2728382],[100.9331976,13.2727546],[100.9333773,13.2726998],[100.9336214,13.2727116],[100.9340237,13.2728447],[100.9349276,13.2730275],[100.9352186,13.2730536],[100.9354842,13.2741239],[100.9359227,13.2759891],[100.9360608,13.2769054],[100.9361427,13.2773988],[100.93614188804429,13.2773988],[100.9363532,13.2786832],[100.936482,13.2793932],[100.9357537,13.2792992],[100.9357309,13.2790486],[100.9348579,13.2791361],[100.9343442,13.2791674],[100.9338453,13.2791648],[100.9330179,13.2789403],[100.9329508,13.2784169],[100.9327993,13.2776912],[100.9327002777133,13.2773988],[100.9327,13.2773988],[100.9325874,13.2770673],[100.9323487,13.2766966],[100.9320898,13.2764877],[100.9317076,13.2764499],[100.9317183,13.2760896],[100.9318069,13.275762],[100.9320402,13.2754474],[100.9320804,13.2752438],[100.9319879,13.2750271],[100.9314582,13.2747191],[100.9313697,13.2746473],[100.9313697,13.274647172891566],[100.9312905,13.2745833],[100.9312744,13.2743393],[100.9312718,13.2739385],[100.9312892,13.2735574]]]}},{"type":"Feature","properties":{"name":"ดอนบน"},"geometry":{"type":"Polygon","coordinates":[[[100.9477097,13.2769485],[100.9478492,13.2769466216986],[100.9478492,13.2769459],[100.9485881,13.2769341],[100.9526476,13.27719],[100.953396,13.2772213],[100.953396,13.277222274147853],[100.9553754,13.2773061],[100.9553795,13.2773988],[100.9553790839693,13.2773988],[100.9555981,13.2824044],[100.9548792,13.2826485],[100.9542637,13.2826524],[100.9540437,13.2827451],[100.95404332857143,13.2827451],[100.9537339,13.2828756],[100.953396,13.282953258324824],[100.953396,13.2829539],[100.9525041,13.2831601],[100.9518993,13.283523],[100.9511563,13.2839276],[100.9507915,13.2840738],[100.9506346,13.2841221],[100.9505206,13.2841116],[100.9492439,13.2835282],[100.9482689,13.2833559],[100.9479028,13.283268234882058],[100.9479028,13.2832685],[100.9473073,13.2831262],[100.9469774,13.2830648],[100.9465899,13.2840359],[100.9459206,13.2856413],[100.9446721,13.2869126],[100.9450462,13.2854195],[100.9451629,13.2843648],[100.9448344,13.2839328],[100.9446211,13.2834107],[100.9440149,13.2830152],[100.9429541,13.2831445],[100.9426805,13.28363],[100.9424096,13.283551526656396],[100.9424096,13.2835517],[100.9405535,13.2830139],[100.9405656,13.2845828],[100.9403604,13.2849039],[100.9400909,13.2850762],[100.939946,13.2851858],[100.9397972,13.2856831],[100.9397382,13.2872585],[100.9370036,13.2833259],[100.9368923,13.2826929],[100.93689254912123,13.2826929],[100.9368628,13.2825232],[100.9368628,13.282523101377645],[100.936321,13.2794311],[100.9369165,13.2792927],[100.9369165,13.279293377978295],[100.942356,13.278035098889449],[100.942356,13.2780345],[100.9444012,13.277562],[100.9453654740947,13.2773988],[100.9453654,13.2773988],[100.94549783886329,13.277376397728332],[100.9456739,13.2773466],[100.94567399855491,13.2773466],[100.9457745,13.2773296],[100.9469265,13.2770686],[100.9477097,13.2769485]]]}},{"type":"Feature","properties":{"name":"แสนสุข"},"geometry":{"type":"Polygon","coordinates":[[[100.936482,13.2793932],[100.936321,13.2794311],[100.9369017,13.2827451],[100.93690160906411,13.2827451],[100.9369165,13.2828286],[100.9369165,13.282830533423173],[100.9370036,13.2833259],[100.9379089,13.2846285],[100.9368628,13.2846781],[100.9368628,13.284678039338555],[100.9362271,13.2847081],[100.9362017,13.2841651],[100.9351476,13.2841521],[100.9349866,13.2840307],[100.9348901,13.2840385],[100.9346487,13.2842983],[100.9337702,13.2837488],[100.9338199,13.2828847],[100.9329776,13.2826929],[100.93297784109112,13.2826929],[100.9324506,13.2825728],[100.9324573,13.2821682],[100.9324868,13.2818967],[100.932574,13.2815795],[100.9330031,13.2805066],[100.9330085,13.2799349],[100.9329897,13.2797991],[100.9329267,13.2797052],[100.9328261,13.2796203],[100.9326142,13.2796021],[100.9325673,13.2789847],[100.9330179,13.2789403],[100.9338453,13.2791648],[100.9343442,13.2791674],[100.9348579,13.2791361],[100.9357309,13.2790486],[100.9357537,13.2792992],[100.936482,13.2793932]]]}},{"type":"Feature","properties":{"name":"ตาลล้อม 2"},"geometry":{"type":"Polygon","coordinates":[[[100.9365731,13.2645143],[100.9368145,13.2651578],[100.9369165,13.2653797],[100.9369165,13.265380632949176],[100.9374355,13.2665127],[100.93749519875776,13.2666537],[100.9374958,13.2666537],[100.9378177,13.2674134],[100.9379585,13.2676575],[100.9382455,13.2680425],[100.9384494,13.2683871],[100.9385419,13.2686586],[100.9386572,13.2692212],[100.9390193,13.2703529],[100.9392057,13.2710108],[100.9393774,13.2716961],[100.9394485,13.2720524],[100.93944800218567,13.2720524],[100.9395289,13.2724623],[100.9396872,13.2731945],[100.9398106,13.2738459],[100.9400399,13.2756928],[100.9402357,13.2773988],[100.94023508949508,13.2773988],[100.9402491,13.2775189],[100.9404637,13.278473],[100.9368628,13.2793058],[100.9368628,13.279305120828537],[100.936482,13.2793932],[100.9363532,13.2786832],[100.9361333,13.2773466],[100.93613403526551,13.2773466],[100.9360608,13.2769054],[100.9359227,13.2759891],[100.9354842,13.2741239],[100.9352267,13.2730927],[100.93500959391304,13.2720524],[100.9350094,13.2720524],[100.9347425,13.2707732],[100.9345011,13.2691507],[100.9342396,13.2677058],[100.93410711633875,13.2667059],[100.9341069,13.2667059],[100.9338789,13.2649829],[100.933848,13.2646096],[100.9338158,13.2640535],[100.933836,13.2627482],[100.9347318,13.2628121],[100.9350751,13.2628069],[100.9351838,13.2627873],[100.9353447,13.263406],[100.9358074,13.2641266],[100.9361172,13.2647088],[100.9365731,13.2645143]]]}},{"type":"Feature","properties":{"name":"ตาลล้อม 1"},"geometry":{"type":"Polygon","coordinates":[[[100.9397408,13.26235],[100.9403296,13.2640783],[100.9406783,13.2652374],[100.94115551160368,13.2666537],[100.9411557,13.2666537],[100.94116252825903,13.266674524491457],[100.9411731,13.2667059],[100.94117281615007,13.2667059],[100.9411758,13.266715],[100.9416184,13.2682671],[100.9423332,13.2680556],[100.9424096,13.2683741],[100.9424096,13.268374431009404],[100.9426859,13.2695267],[100.9430802,13.27108],[100.94329851565199,13.2720002],[100.9432988,13.2720002],[100.943331,13.2721373],[100.94388405754924,13.2720524],[100.9438835,13.2720524],[100.9452783,13.2718383],[100.9453051,13.2720524],[100.94530493922454,13.2720524],[100.9454593,13.2732846],[100.9457356,13.2748457],[100.9457745,13.2773296],[100.94549783886329,13.277376397728332],[100.9444012,13.277562],[100.942356,13.2780358],[100.942356,13.278035103556194],[100.9404637,13.278473],[100.9402491,13.2775189],[100.940229,13.2773466],[100.94022970893317,13.2773466],[100.9400399,13.2756928],[100.9398106,13.2738459],[100.9396872,13.2731945],[100.9395289,13.2724623],[100.9394377,13.2720002],[100.93943808344092,13.2720002],[100.9393774,13.2716961],[100.9392057,13.2710108],[100.9390193,13.2703529],[100.9386572,13.2692212],[100.9385419,13.2686586],[100.9384494,13.2683871],[100.9382455,13.2680425],[100.9379585,13.2676575],[100.9378177,13.2674134],[100.93751791817822,13.2667059],[100.9375173,13.2667059],[100.9374355,13.2665127],[100.9368628,13.2652635],[100.9368628,13.26526287617648],[100.9368145,13.2651578],[100.9368628,13.265139853235294],[100.9368628,13.2651395],[100.9377547,13.2648119],[100.9381624,13.2645769],[100.938389,13.2643511],[100.9384708,13.2641462],[100.9384346,13.2638616],[100.9378257,13.26229],[100.9388959,13.2617444],[100.9392285,13.2616948],[100.9397006,13.2616634],[100.9397408,13.26235]]]}},{"type":"Feature","properties":{"name":"บ้านเหมือง"},"geometry":{"type":"Polygon","coordinates":[[[100.9365758,13.2530141],[100.9369165,13.2533652],[100.9369165,13.253365840116649],[100.9370171,13.2534697],[100.9376635,13.2541981],[100.9379625,13.2546341],[100.9381838,13.2550544],[100.93863906651706,13.2559603],[100.9386398,13.2559603],[100.9391078,13.2568924],[100.9397663,13.2582591],[100.940166,13.2591193],[100.9404208,13.259742],[100.9405307,13.2600474],[100.9408191,13.2610029],[100.9409063,13.2613593],[100.94090561186131,13.2613593],[100.9409197,13.2614167],[100.9414199,13.2638486],[100.9419832,13.2664879],[100.9420198585321,13.2666537],[100.9420207,13.2666537],[100.9423332,13.2680556],[100.9416184,13.2682671],[100.9411758,13.266715],[100.94116252825903,13.266674524491457],[100.9406783,13.2652374],[100.9403296,13.2640783],[100.9397408,13.26235],[100.9397006,13.2616634],[100.9392285,13.2616948],[100.9388959,13.2617444],[100.9378257,13.26229],[100.9384346,13.2638616],[100.9384708,13.2641462],[100.938389,13.2643511],[100.9381624,13.2645769],[100.9377547,13.2648119],[100.9369165,13.265119775681132],[100.9369165,13.2651199],[100.9368145,13.2651578],[100.9365731,13.2645143],[100.9361172,13.2647088],[100.9358074,13.2641266],[100.9353447,13.263406],[100.9351838,13.2627873],[100.9350751,13.2628069],[100.9347318,13.2628121],[100.933836,13.2627482],[100.93385537193116,13.2613593],[100.9338547,13.2613593],[100.9338963,13.2583713],[100.9339097,13.2559603],[100.93390998564443,13.2559603],[100.9339191,13.2542947],[100.9338789,13.2514071],[100.9345883,13.2517074],[100.935279,13.2520625],[100.9358114,13.2524019],[100.9362057,13.2526838],[100.9365758,13.2530141]]]}},{"type":"Feature","properties":{"name":"ดอนนารา"},"geometry":{"type":"Polygon","coordinates":[[[100.9354869,13.2390265],[100.9358181,13.239298],[100.9363009,13.2399716],[100.93630075995576,13.2399716],[100.936781,13.2406426],[100.9369165,13.2409546],[100.9369165,13.240955802684345],[100.9388074,13.2453187],[100.93880722389889,13.2453187],[100.9400225,13.2481227],[100.9374820407157,13.2506135],[100.9374824,13.2506135],[100.9369165,13.25116789202712],[100.9369165,13.2511683],[100.9365088,13.2515677],[100.9351811,13.25121],[100.9338869,13.2506226],[100.9338869,13.2506135],[100.93388737792455,13.2506135],[100.9340197,13.248094],[100.93429610123077,13.2453187],[100.934296,13.2453187],[100.934469,13.2435916],[100.93491979952073,13.2399716],[100.9349196,13.2399716],[100.9350443,13.238969],[100.9352294,13.2389677],[100.9354869,13.2390265]]]}},{"type":"Feature","properties":{"name":"พัฒนา 2"},"geometry":{"type":"Polygon","coordinates":[[[100.9374291164415,13.2506657],[100.9374288,13.2506657],[100.9400225,13.2481227],[100.9411785,13.2506657],[100.94117814309321,13.2506657],[100.9424096,13.2533731],[100.9424096,13.253373496940728],[100.9431928,13.2550962],[100.9433095,13.2560125],[100.94330944197753,13.2560125],[100.9435576,13.2579628],[100.9437923,13.2613593],[100.94379192119331,13.2613593],[100.9438755,13.2625641],[100.9439868,13.2634844],[100.9443609,13.2649737],[100.9448129,13.2665858],[100.9448236,13.2667059],[100.94482267575997,13.2667059],[100.9452005,13.2712131],[100.9452783,13.2718383],[100.9442235680056,13.2720002],[100.9442241,13.2720002],[100.943331,13.2721373],[100.94331105995623,13.2720524],[100.9433109,13.2720524],[100.9430802,13.27108],[100.9426859,13.2695267],[100.942356,13.2681522],[100.942356,13.268152154034235],[100.9423278,13.2680347],[100.94203230797973,13.2667059],[100.9420314,13.2667059],[100.9419832,13.2664879],[100.9414199,13.2638486],[100.9409197,13.2614167],[100.9408928,13.2613071],[100.94089352828283,13.2613071],[100.9408191,13.2610029],[100.9405307,13.2600474],[100.9404208,13.259742],[100.940166,13.2591193],[100.9397663,13.2582591],[100.9391078,13.2568924],[100.93866600920502,13.2560125],[100.9386653,13.2560125],[100.9381838,13.2550544],[100.9379625,13.2546341],[100.9376635,13.2541981],[100.9370171,13.2534697],[100.9368628,13.2533104],[100.9368628,13.253309860786619],[100.9365758,13.2530141],[100.9362057,13.2526838],[100.9358114,13.2524019],[100.935279,13.2520625],[100.9345883,13.2517074],[100.9338789,13.2514071],[100.9338869,13.2506226],[100.9339821,13.2506657],[100.93398186087845,13.2506657],[100.9351811,13.25121],[100.9365088,13.2515677],[100.9368628,13.25122090676968],[100.9368628,13.2512205],[100.9374291164415,13.2506657]]]}},{"type":"Feature","properties":{"name":"บางแสนทาวเวอร์"},"geometry":{"type":"Polygon","coordinates":[[[100.9405656,13.2845828],[100.9405535,13.2830139],[100.942356,13.283536169543668],[100.942356,13.283536],[100.9426805,13.28363],[100.9429541,13.2831445],[100.9440149,13.2830152],[100.9446211,13.2834107],[100.9448344,13.2839328],[100.9451629,13.2843648],[100.9450462,13.2854195],[100.9446721,13.2869126],[100.9440847,13.2876383],[100.9434819247516,13.288039],[100.9434825,13.288039],[100.9425813,13.2886381],[100.942356,13.288642],[100.942356,13.288641485440793],[100.9407172,13.2886655],[100.9403176192019,13.2880912],[100.9403175,13.2880912],[100.9397382,13.2872585],[100.9397972,13.2856831],[100.939946,13.2851858],[100.9400909,13.2850762],[100.9403604,13.2849039],[100.9405656,13.2845828]]]}},{"type":"Feature","properties":{"name":"มณีแก้ว"},"geometry":{"type":"Polygon","coordinates":[[[100.95537719126213,13.2773466],[100.9553754,13.2773061],[100.9572047,13.2773844],[100.9588891,13.2774406],[100.9588891,13.277441087457577],[100.9608686,13.2775071],[100.9612696,13.2782929],[100.9616934,13.2789716],[100.9618784,13.2793071],[100.962026,13.2793776],[100.96238,13.2794598],[100.9625933,13.2797678],[100.9627797,13.2802899],[100.9628561,13.2806763],[100.9627663,13.2817701],[100.9627636,13.2819254],[100.9628896,13.2821186],[100.9631699,13.2823822],[100.9637506,13.2827451],[100.96374988675959,13.2827451],[100.9638043,13.282779],[100.9640108,13.2830139],[100.9643072,13.2834055],[100.9643072,13.2835138],[100.9642428,13.2836652],[100.964039,13.2838676],[100.9638941,13.2840255],[100.9638217,13.284156],[100.9638083,13.2842709],[100.9638552,13.2845189],[100.963355,13.2846063],[100.9629178,13.284665],[100.962777,13.2844144],[100.9627528,13.2841351],[100.9626912,13.2838062],[100.9624404,13.2835138],[100.9622996,13.2834146],[100.9619562,13.2834747],[100.9618101,13.2834329],[100.9617417,13.2832828],[100.9614775,13.2830622],[100.96127133777416,13.2827451],[100.9612709,13.2827451],[100.9612173,13.2826628],[100.9611288,13.2825767],[100.9609531,13.282578],[100.9605575,13.282531],[100.9599768,13.2822634],[100.959785,13.2822282],[100.9594417,13.2822674],[100.9589803,13.2823417],[100.9588891,13.28235076961326],[100.9588891,13.2823509],[100.9586209,13.2823783],[100.9582937,13.2822674],[100.9582695,13.28227],[100.9581448,13.2822269],[100.9580053,13.2822138],[100.9579034,13.2822282],[100.9578739,13.2822856],[100.9578042,13.2826602],[100.95774615939675,13.2826929],[100.9577465,13.2826929],[100.9577277,13.2827033],[100.9576674,13.2827098],[100.9575869,13.2826929],[100.95758776949154,13.2826929],[100.956333,13.2824266],[100.9556879,13.2823744],[100.9555981,13.2824044],[100.9553768,13.2773466],[100.95537719126213,13.2773466]]]}}]}
